{
  "type": "FeatureCollection",
  "features": [
    {
      "type": "Feature",
      "properties": {
        "nombre": "Cancha de vóley playa N.1 - Unidad Deportiva Atanasio Girardot",
        "barrio": "Laureles-Estadio",
        "municipio": "Medellín",
        "tipo": "Pública",
        "fuente": "MEData - Alcaldía de Medellín"
      },
      "geometry": { "type": "Point", "coordinates": [-75.591129, 6.257519] }
    },
    {
      "type": "Feature",
      "properties": {
        "nombre": "Cancha de vóley playa en arenilla - Unidad Deportiva de Belén",
        "barrio": "Belén",
        "municipio": "Medellín",
        "tipo": "Pública",
        "fuente": "MEData - Alcaldía de Medellín"
      },
      "geometry": { "type": "Point", "coordinates": [-75.6069, 6.2378] }
    },
    {
      "type": "Feature",
      "properties": {
        "nombre": "Beach Point (canchas techadas)",
        "barrio": "Villa Carlota",
        "municipio": "Medellín",
        "tipo": "Privada",
        "fuente": "Dirección: Cl. 24 #43f-73, El Poblado (ubicación aproximada, verificar)"
      },
      "geometry": { "type": "Point", "coordinates": [-75.567, 6.2115] }
    },
    {
      "type": "Feature",
      "properties": {
        "nombre": "Arena Sur (cancha más grande del Valle de Aburrá)",
        "barrio": "La Esmeralda",
        "municipio": "Itagüí",
        "tipo": "Privada",
        "fuente": "Dirección: Cra. 44 #63-22, Itagüí, junto a Estación Envigado (ubicación aproximada, verificar)"
      },
      "geometry": { "type": "Point", "coordinates": [-75.5926, 6.1746] }
    },
    {
      "type": "Feature",
      "properties": {
        "nombre": "Cancha de Vóley Playa de Sabaneta",
        "barrio": "Centro",
        "municipio": "Sabaneta",
        "tipo": "Pública/Comunitaria",
        "fuente": "Dirección: Calle 82 Sur #47f-2, Sabaneta (ubicación aproximada, verificar)"
      },
      "geometry": { "type": "Point", "coordinates": [-75.6169, 6.15] }
    }
  ]
}